ONEWEB-0686             
1 56721U 23068M   25287.24151633  .00000029  00000+0  41027-4 0  9997
2 56721  87.8966 277.7979 0002200  90.2526 269.8857 13.16594632119357
ONEWEB-0694             
1 56722U 23068N   25287.20828130  .00000498  00000+0  12696-2 0  9995
2 56722  87.8987 277.7400 0002009  78.6261 281.5095 13.16594874119402
ONEWEB-0696             
1 56723U 23068P   25287.12721384  .00000130  00000+0  31150-3 0  9990
2 56723  87.8974 308.3384 0001727 103.1792 256.9531 13.15548096117010
ONEWEB-0703             
1 56724U 23068Q   25287.28884376  .00000180  00000+0  44536-3 0  9996
2 56724  87.8971 308.2893 0001147 126.9505 233.1731 13.15555911116925
ONEWEB-0721             
1 56725U 23068R   25287.17009786  .00000183  00000+0  40383-3 0  9998
2 56725  86.6846 163.9690 0001627  75.7121 284.4193 13.22447786125427
ONEWEB-0015             
1 61594U 24188A   25287.32867605  .00000117  00000+0  29562-3 0  9994
2 61594  87.8816  70.0657 0001460  73.7363 286.3925 13.11415126 52232
ONEWEB-0687             
1 61595U 24188B   25287.27354042  .00000132  00000+0  30805-3 0  9994
2 61595  87.9092  54.8076 0002021  82.7330 277.4031 13.17650116 53510
ONEWEB-0688             
1 61596U 24188C   25287.30222197 -.00000060  00000+0 -18736-3 0  9995
2 61596  87.9087  54.8016 0001546  51.4888 308.6382 13.17651161 53518
ONEWEB-0689             
1 61597U 24188D   25287.13369378 -.00000194  00000+0 -58338-3 0  9990
2 61597  87.8795  70.0494 0001935  90.1231 270.0118 13.11418084 52201
ONEWEB-0690             
1 61598U 24188E   25287.29646158  .00000110  00000+0  27467-3 0  9997
2 61598  87.8838  70.0111 0001163 123.8626 236.2613 13.11420475 52404
ONEWEB-0691             
1 61599U 24188F   25286.68100450  .00000241  00000+0  64326-3 0  9990
2 61599  87.8762  70.0669 0001445  81.0210 279.1082 13.11418878 52170
ONEWEB-0692             
1 61600U 24188G   25287.31172283  .00000451  00000+0  12361-2 0  9991
2 61600  87.8813  70.0658 0002479 106.6063 253.5337 13.11418697 52242
ONEWEB-0693             
1 61601U 24188H   25287.31401247  .00000038  00000+0  64862-4 0  9993
2 61601  87.9090  54.8182 0000996 119.1416 240.9815 13.17646723 53506
ONEWEB-0695             
1 61602U 24188J   25287.13539152 -.00000312  00000+0 -91656-3 0  9998
2 61602  87.8808  70.0883 0002239  94.4441 265.6943 13.11416370 52216
ONEWEB-0697             
1 61603U 24188K   25287.32020699  .00000451  00000+0  12373-2 0  9991
2 61603  87.8811  70.0425 0002378 108.3022 251.8365 13.11416293 52227
ONEWEB-0698             
1 61604U 24188L   25287.29815985  .00000213  00000+0  56531-3 0  9999
2 61604  87.8816  70.0615 0002119 127.7265 232.4055 13.11418359 52249
ONEWEB-0699             
1 61605U 24188M   25287.19166282  .00000428  00000+0  11893-2 0  9997
2 61605  87.8756  85.2986 0002181 106.2639 253.8729 13.10375917 51096
