[{"OBJECT_NAME":"ONEWEB-0686","OBJECT_ID":"2023-068M","EPOCH":"2025-10-14T05:47:47.010912","MEAN_MOTION":13.16594632,"ECCENTRICITY":0.00022008,"INCLINATION":87.8966,"RA_OF_ASC_NODE":277.7979,"ARG_OF_PERICENTER":90.2526,"MEAN_ANOMALY":269.8857,"EPHEMERIS_TYPE":0,"CLASSIFICATION_TYPE":"U","NORAD_CAT_ID":56721,"ELEMENT_SET_NO":999,"REV_AT_EPOCH":11935,"BSTAR":4.1026729e-5,"MEAN_MOTION_DOT":2.9e-7,"MEAN_MOTION_DDOT":0},{"OBJECT_NAME":"ONEWEB-0694","OBJECT_ID":"2023-068N","EPOCH":"2025-10-14T04:59:55.504320","MEAN_MOTION":13.16594874,"ECCENTRICITY":0.00020098,"INCLINATION":87.8987,"RA_OF_ASC_NODE":277.74,"ARG_OF_PERICENTER":78.6261,"MEAN_ANOMALY":281.5095,"EPHEMERIS_TYPE":0,"CLASSIFICATION_TYPE":"U","NORAD_CAT_ID":56722,"ELEMENT_SET_NO":999,"REV_AT_EPOCH":11940,"BSTAR":0.0012695665,"MEAN_MOTION_DOT":4.98e-6,"MEAN_MOTION_DDOT":0},{"OBJECT_NAME":"ONEWEB-0696","OBJECT_ID":"2023-068P","EPOCH":"2025-10-14T03:03:11.275776","MEAN_MOTION":13.15548096,"ECCENTRICITY":0.00017275,"INCLINATION":87.8974,"RA_OF_ASC_NODE":308.3384,"ARG_OF_PERICENTER":103.1792,"MEAN_ANOMALY":256.9531,"EPHEMERIS_TYPE":0,"CLASSIFICATION_TYPE":"U","NORAD_CAT_ID":56723,"ELEMENT_SET_NO":999,"REV_AT_EPOCH":11701,"BSTAR":0.0003114958,"MEAN_MOTION_DOT":1.3e-6,"MEAN_MOTION_DDOT":0},{"OBJECT_NAME":"ONEWEB-0703","OBJECT_ID":"2023-068Q","EPOCH":"2025-10-14T06:55:56.100864","MEAN_MOTION":13.15555911,"ECCENTRICITY":0.00011473,"INCLINATION":87.8971,"RA_OF_ASC_NODE":308.2893,"ARG_OF_PERICENTER":126.9505,"MEAN_ANOMALY":233.1731,"EPHEMERIS_TYPE":0,"CLASSIFICATION_TYPE":"U","NORAD_CAT_ID":56724,"ELEMENT_SET_NO":999,"REV_AT_EPOCH":11692,"BSTAR":0.0004453559,"MEAN_MOTION_DOT":1.8e-6,"MEAN_MOTION_DDOT":0},{"OBJECT_NAME":"ONEWEB-0721","OBJECT_ID":"2023-068R","EPOCH":"2025-10-14T04:04:56.455104","MEAN_MOTION":13.22447786,"ECCENTRICITY":0.00016272,"INCLINATION":86.6846,"RA_OF_ASC_NODE":163.969,"ARG_OF_PERICENTER":75.7121,"MEAN_ANOMALY":284.4193,"EPHEMERIS_TYPE":0,"CLASSIFICATION_TYPE":"U","NORAD_CAT_ID":56725,"ELEMENT_SET_NO":999,"REV_AT_EPOCH":12542,"BSTAR":0.00040383315,"MEAN_MOTION_DOT":1.83e-6,"MEAN_MOTION_DDOT":0},{"OBJECT_NAME":"ONEWEB-0015","OBJECT_ID":"2024-188A","EPOCH":"2025-10-14T07:53:17.610720","MEAN_MOTION":13.11415126,"ECCENTRICITY":0.00014607,"INCLINATION":87.8816,"RA_OF_ASC_NODE":70.0657,"ARG_OF_PERICENTER":73.7363,"MEAN_ANOMALY":286.3925,"EPHEMERIS_TYPE":0,"CLASSIFICATION_TYPE":"U","NORAD_CAT_ID":61594,"ELEMENT_SET_NO":999,"REV_AT_EPOCH":5223,"BSTAR":0.00029562254,"MEAN_MOTION_DOT":1.17e-6,"MEAN_MOTION_DDOT":0},{"OBJECT_NAME":"ONEWEB-0687","OBJECT_ID":"2024-188B","EPOCH":"2025-10-14T06:33:53.892288","MEAN_MOTION":13.17650116,"ECCENTRICITY":0.00020212,"INCLINATION":87.9092,"RA_OF_ASC_NODE":54.8076,"ARG_OF_PERICENTER":82.733,"MEAN_ANOMALY":277.4031,"EPHEMERIS_TYPE":0,"CLASSIFICATION_TYPE":"U","NORAD_CAT_ID":61595,"ELEMENT_SET_NO":999,"REV_AT_EPOCH":5351,"BSTAR":0.00030805041,"MEAN_MOTION_DOT":1.32e-6,"MEAN_MOTION_DDOT":0},{"OBJECT_NAME":"ONEWEB-0688","OBJECT_ID":"2024-188C","EPOCH":"2025-10-14T07:15:11.978208","MEAN_MOTION":13.17651161,"ECCENTRICITY":0.00015466,"INCLINATION":87.9087,"RA_OF_ASC_NODE":54.8016,"ARG_OF_PERICENTER":51.4888,"MEAN_ANOMALY":308.6382,"EPHEMERIS_TYPE":0,"CLASSIFICATION_TYPE":"U","NORAD_CAT_ID":61596,"ELEMENT_SET_NO":999,"REV_AT_EPOCH":5351,"BSTAR":-0.000187358,"MEAN_MOTION_DOT":-6.0e-7,"MEAN_MOTION_DDOT":0},{"OBJECT_NAME":"ONEWEB-0689","OBJECT_ID":"2024-188D","EPOCH":"2025-10-14T03:12:31.142592","MEAN_MOTION":13.11418084,"ECCENTRICITY":0.00019357,"INCLINATION":87.8795,"RA_OF_ASC_NODE":70.0494,"ARG_OF_PERICENTER":90.1231,"MEAN_ANOMALY":270.0118,"EPHEMERIS_TYPE":0,"CLASSIFICATION_TYPE":"U","NORAD_CAT_ID":61597,"ELEMENT_SET_NO":999,"REV_AT_EPOCH":5220,"BSTAR":-0.00058337719,"MEAN_MOTION_DOT":-1.94e-6,"MEAN_MOTION_DDOT":0},{"OBJECT_NAME":"ONEWEB-0690","OBJECT_ID":"2024-188E","EPOCH":"2025-10-14T07:06:54.280512","MEAN_MOTION":13.11420475,"ECCENTRICITY":0.00011635,"INCLINATION":87.8838,"RA_OF_ASC_NODE":70.0111,"ARG_OF_PERICENTER":123.8626,"MEAN_ANOMALY":236.2613,"EPHEMERIS_TYPE":0,"CLASSIFICATION_TYPE":"U","NORAD_CAT_ID":61598,"ELEMENT_SET_NO":999,"REV_AT_EPOCH":5240,"BSTAR":0.00027466707,"MEAN_MOTION_DOT":1.1e-6,"MEAN_MOTION_DDOT":0},{"OBJECT_NAME":"ONEWEB-0691","OBJECT_ID":"2024-188F","EPOCH":"2025-10-13T16:20:38.788800","MEAN_MOTION":13.11418878,"ECCENTRICITY":0.00014457,"INCLINATION":87.8762,"RA_OF_ASC_NODE":70.0669,"ARG_OF_PERICENTER":81.021,"MEAN_ANOMALY":279.1082,"EPHEMERIS_TYPE":0,"CLASSIFICATION_TYPE":"U","NORAD_CAT_ID":61599,"ELEMENT_SET_NO":999,"REV_AT_EPOCH":5217,"BSTAR":0.00064325659,"MEAN_MOTION_DOT":2.41e-6,"MEAN_MOTION_DDOT":0},{"OBJECT_NAME":"ONEWEB-0692","OBJECT_ID":"2024-188G","EPOCH":"2025-10-14T07:28:52.852512","MEAN_MOTION":13.11418697,"ECCENTRICITY":0.00024793,"INCLINATION":87.8813,"RA_OF_ASC_NODE":70.0658,"ARG_OF_PERICENTER":106.6063,"MEAN_ANOMALY":253.5337,"EPHEMERIS_TYPE":0,"CLASSIFICATION_TYPE":"U","NORAD_CAT_ID":61600,"ELEMENT_SET_NO":999,"REV_AT_EPOCH":5224,"BSTAR":0.0012361234,"MEAN_MOTION_DOT":4.51e-6,"MEAN_MOTION_DDOT":0},{"OBJECT_NAME":"ONEWEB-0693","OBJECT_ID":"2024-188H","EPOCH":"2025-10-14T07:32:10.677408","MEAN_MOTION":13.17646723,"ECCENTRICITY":9.964e-5,"INCLINATION":87.909,"RA_OF_ASC_NODE":54.8182,"ARG_OF_PERICENTER":119.1416,"MEAN_ANOMALY":240.9815,"EPHEMERIS_TYPE":0,"CLASSIFICATION_TYPE":"U","NORAD_CAT_ID":61601,"ELEMENT_SET_NO":999,"REV_AT_EPOCH":5350,"BSTAR":6.4862007e-5,"MEAN_MOTION_DOT":3.8e-7,"MEAN_MOTION_DDOT":0},{"OBJECT_NAME":"ONEWEB-0695","OBJECT_ID":"2024-188J","EPOCH":"2025-10-14T03:14:57.827328","MEAN_MOTION":13.1141637,"ECCENTRICITY":0.00022395,"INCLINATION":87.8808,"RA_OF_ASC_NODE":70.0883,"ARG_OF_PERICENTER":94.4441,"MEAN_ANOMALY":265.6943,"EPHEMERIS_TYPE":0,"CLASSIFICATION_TYPE":"U","NORAD_CAT_ID":61602,"ELEMENT_SET_NO":999,"REV_AT_EPOCH":5221,"BSTAR":-0.00091655615,"MEAN_MOTION_DOT":-3.12e-6,"MEAN_MOTION_DDOT":0},{"OBJECT_NAME":"ONEWEB-0697","OBJECT_ID":"2024-188K","EPOCH":"2025-10-14T07:41:05.883936","MEAN_MOTION":13.11416293,"ECCENTRICITY":0.00023789,"INCLINATION":87.8811,"RA_OF_ASC_NODE":70.0425,"ARG_OF_PERICENTER":108.3022,"MEAN_ANOMALY":251.8365,"EPHEMERIS_TYPE":0,"CLASSIFICATION_TYPE":"U","NORAD_CAT_ID":61603,"ELEMENT_SET_NO":999,"REV_AT_EPOCH":5222,"BSTAR":0.0012372953,"MEAN_MOTION_DOT":4.51e-6,"MEAN_MOTION_DDOT":0},{"OBJECT_NAME":"ONEWEB-0698","OBJECT_ID":"2024-188L","EPOCH":"2025-10-14T07:09:21.011040","MEAN_MOTION":13.11418359,"ECCENTRICITY":0.0002119,"INCLINATION":87.8816,"RA_OF_ASC_NODE":70.0615,"ARG_OF_PERICENTER":127.7265,"MEAN_ANOMALY":232.4055,"EPHEMERIS_TYPE":0,"CLASSIFICATION_TYPE":"U","NORAD_CAT_ID":61604,"ELEMENT_SET_NO":999,"REV_AT_EPOCH":5224,"BSTAR":0.00056530941,"MEAN_MOTION_DOT":2.13e-6,"MEAN_MOTION_DDOT":0},{"OBJECT_NAME":"ONEWEB-0699","OBJECT_ID":"2024-188M","EPOCH":"2025-10-14T04:35:59.667648","MEAN_MOTION":13.10375917,"ECCENTRICITY":0.00021814,"INCLINATION":87.8756,"RA_OF_ASC_NODE":85.2986,"ARG_OF_PERICENTER":106.2639,"MEAN_ANOMALY":253.8729,"EPHEMERIS_TYPE":0,"CLASSIFICATION_TYPE":"U","NORAD_CAT_ID":61605,"ELEMENT_SET_NO":999,"REV_AT_EPOCH":5109,"BSTAR":0.0011892989,"MEAN_MOTION_DOT":4.28e-6,"MEAN_MOTION_DDOT":0}]
